ONEWEB-0095             
1 45436U 20020N   26080.38179925 -.00000321  00000+0 -94260-3 0  9997
2 45436  87.8889  38.5175 0001882  56.8245 303.3063 13.11419108291166
ONEWEB-0092             
1 45437U 20020P   26080.43000210 -.00000158  00000+0 -48094-3 0  9996
2 45437  87.8888  38.5079 0001649  72.1152 288.0156 13.11414859291281
ONEWEB-0085             
1 45438U 20020Q   26080.39015989  .00000116  00000+0  29011-3 0  9991
2 45438  87.8889  38.5196 0001854  80.3826 279.7511 13.11418739291160
ONEWEB-0096             
1 45439U 20020R   26080.39186105  .00000218  00000+0  58017-3 0  9992
2 45439  87.8894  38.5081 0001810  82.2021 277.9312 13.11418864291157
ONEWEB-0037             
1 45440U 20020S   26080.60123974 -.00000479  00000+0 -13884-2 0  9996
2 45440  87.8901  38.4432 0001807  77.4885 282.6445 13.11418046291216
ONEWEB-0042             
1 45441U 20020T   26080.38153684 -.00000252  00000+0 -74658-3 0  9999
2 45441  87.8895  38.5075 0001795  82.2986 277.8346 13.11418600291150
ONEWEB-0098             
1 45442U 20020U   26080.60633088 -.00000412  00000+0 -11981-2 0  9993
2 45442  87.8890  38.4741 0001928  81.0315 279.1031 13.11417627291161
ONEWEB-0055             
1 45443U 20020V   26080.58937205 -.00000315  00000+0 -92599-3 0  9996
2 45443  87.8889  38.4774 0001915  81.2844 278.8501 13.11416605291131
ONEWEB-0093             
1 45444U 20020W   26080.41235321  .00000513  00000+0  14121-2 0  9991
2 45444  87.8889  38.5027 0001497  87.8989 272.2311 13.11416106291178
ONEWEB-0029             
1 45445U 20020X   26080.58089685  .00000006  00000+0 -17545-4 0  9993
2 45445  87.8891  38.4802 0001787  83.6507 276.4824 13.11416056291173
ONEWEB-0068             
1 45446U 20020Y   26080.41207205  .00000541  00000+0  14901-2 0  9990
2 45446  87.8893  38.5054 0001762  86.5032 273.6298 13.11415938291097
ONEWEB-0046             
1 45447U 20020Z   26080.40371263 -.00000633  00000+0 -18214-2 0  9991
2 45447  87.8893  38.5137 0001618  79.5538 280.5772 13.11423455291102
ONEWEB-0063             
1 45448U 20020AA  26080.58513417 -.00000194  00000+0 -58183-3 0  9992
2 45448  87.8893  38.4752 0001689  73.5743 286.5571 13.11415452291218
ONEWEB-0019             
1 45449U 20020AB  26080.39511147  .00000296  00000+0  79938-3 0  9992
2 45449  87.8885  38.5057 0002024  81.2441 278.8916 13.11418213291039
ONEWEB-0094             
1 45450U 20020AC  26080.57260321  .00000044  00000+0  80709-4 0  9999
2 45450  87.9180  23.2380 0001932  85.8740 274.2612 13.17647845294777
ONEWEB-0087             
1 45451U 20020AD  26080.59516809 -.00000465  00000+0 -13487-2 0  9993
2 45451  87.8902  38.4406 0001756  89.6314 270.5016 13.11416305291109
