[{"OBJECT_NAME":"ONEWEB-0095","OBJECT_ID":"2020-020N","EPOCH":"2026-03-21T09:09:47.455200","MEAN_MOTION":13.11419108,"ECCENTRICITY":0.00018823,"INCLINATION":87.8889,"RA_OF_ASC_NODE":38.5175,"ARG_OF_PERICENTER":56.8245,"MEAN_ANOMALY":303.3063,"EPHEMERIS_TYPE":0,"CLASSIFICATION_TYPE":"U","NORAD_CAT_ID":45436,"ELEMENT_SET_NO":999,"REV_AT_EPOCH":29116,"BSTAR":-0.00094259789,"MEAN_MOTION_DOT":-3.21e-6,"MEAN_MOTION_DDOT":0},{"OBJECT_NAME":"ONEWEB-0092","OBJECT_ID":"2020-020P","EPOCH":"2026-03-21T10:19:12.181440","MEAN_MOTION":13.11414859,"ECCENTRICITY":0.00016497,"INCLINATION":87.8888,"RA_OF_ASC_NODE":38.5079,"ARG_OF_PERICENTER":72.1152,"MEAN_ANOMALY":288.0156,"EPHEMERIS_TYPE":0,"CLASSIFICATION_TYPE":"U","NORAD_CAT_ID":45437,"ELEMENT_SET_NO":999,"REV_AT_EPOCH":29128,"BSTAR":-0.00048094476,"MEAN_MOTION_DOT":-1.58e-6,"MEAN_MOTION_DDOT":0},{"OBJECT_NAME":"ONEWEB-0085","OBJECT_ID":"2020-020Q","EPOCH":"2026-03-21T09:21:49.814496","MEAN_MOTION":13.11418739,"ECCENTRICITY":0.00018548,"INCLINATION":87.8889,"RA_OF_ASC_NODE":38.5196,"ARG_OF_PERICENTER":80.3826,"MEAN_ANOMALY":279.7511,"EPHEMERIS_TYPE":0,"CLASSIFICATION_TYPE":"U","NORAD_CAT_ID":45438,"ELEMENT_SET_NO":999,"REV_AT_EPOCH":29116,"BSTAR":0.00029010965,"MEAN_MOTION_DOT":1.16e-6,"MEAN_MOTION_DDOT":0},{"OBJECT_NAME":"ONEWEB-0096","OBJECT_ID":"2020-020R","EPOCH":"2026-03-21T09:24:16.794720","MEAN_MOTION":13.11418864,"ECCENTRICITY":0.000181,"INCLINATION":87.8894,"RA_OF_ASC_NODE":38.5081,"ARG_OF_PERICENTER":82.2021,"MEAN_ANOMALY":277.9312,"EPHEMERIS_TYPE":0,"CLASSIFICATION_TYPE":"U","NORAD_CAT_ID":45439,"ELEMENT_SET_NO":999,"REV_AT_EPOCH":29115,"BSTAR":0.00058017161,"MEAN_MOTION_DOT":2.18e-6,"MEAN_MOTION_DDOT":0},{"OBJECT_NAME":"ONEWEB-0037","OBJECT_ID":"2020-020S","EPOCH":"2026-03-21T14:25:47.113536","MEAN_MOTION":13.11418046,"ECCENTRICITY":0.00018074,"INCLINATION":87.8901,"RA_OF_ASC_NODE":38.4432,"ARG_OF_PERICENTER":77.4885,"MEAN_ANOMALY":282.6445,"EPHEMERIS_TYPE":0,"CLASSIFICATION_TYPE":"U","NORAD_CAT_ID":45440,"ELEMENT_SET_NO":999,"REV_AT_EPOCH":29121,"BSTAR":-0.001388409,"MEAN_MOTION_DOT":-4.79e-6,"MEAN_MOTION_DDOT":0},{"OBJECT_NAME":"ONEWEB-0042","OBJECT_ID":"2020-020T","EPOCH":"2026-03-21T09:09:24.782976","MEAN_MOTION":13.114186,"ECCENTRICITY":0.00017954,"INCLINATION":87.8895,"RA_OF_ASC_NODE":38.5075,"ARG_OF_PERICENTER":82.2986,"MEAN_ANOMALY":277.8346,"EPHEMERIS_TYPE":0,"CLASSIFICATION_TYPE":"U","NORAD_CAT_ID":45441,"ELEMENT_SET_NO":999,"REV_AT_EPOCH":29115,"BSTAR":-0.00074658087,"MEAN_MOTION_DOT":-2.52e-6,"MEAN_MOTION_DDOT":0},{"OBJECT_NAME":"ONEWEB-0098","OBJECT_ID":"2020-020U","EPOCH":"2026-03-21T14:33:06.988032","MEAN_MOTION":13.11417627,"ECCENTRICITY":0.00019287,"INCLINATION":87.889,"RA_OF_ASC_NODE":38.4741,"ARG_OF_PERICENTER":81.0315,"MEAN_ANOMALY":279.1031,"EPHEMERIS_TYPE":0,"CLASSIFICATION_TYPE":"U","NORAD_CAT_ID":45442,"ELEMENT_SET_NO":999,"REV_AT_EPOCH":29116,"BSTAR":-0.0011981041,"MEAN_MOTION_DOT":-4.12e-6,"MEAN_MOTION_DDOT":0},{"OBJECT_NAME":"ONEWEB-0055","OBJECT_ID":"2020-020V","EPOCH":"2026-03-21T14:08:41.745120","MEAN_MOTION":13.11416605,"ECCENTRICITY":0.00019155,"INCLINATION":87.8889,"RA_OF_ASC_NODE":38.4774,"ARG_OF_PERICENTER":81.2844,"MEAN_ANOMALY":278.8501,"EPHEMERIS_TYPE":0,"CLASSIFICATION_TYPE":"U","NORAD_CAT_ID":45443,"ELEMENT_SET_NO":999,"REV_AT_EPOCH":29113,"BSTAR":-0.00092599169,"MEAN_MOTION_DOT":-3.15e-6,"MEAN_MOTION_DDOT":0},{"OBJECT_NAME":"ONEWEB-0093","OBJECT_ID":"2020-020W","EPOCH":"2026-03-21T09:53:47.317344","MEAN_MOTION":13.11416106,"ECCENTRICITY":0.00014976,"INCLINATION":87.8889,"RA_OF_ASC_NODE":38.5027,"ARG_OF_PERICENTER":87.8989,"MEAN_ANOMALY":272.2311,"EPHEMERIS_TYPE":0,"CLASSIFICATION_TYPE":"U","NORAD_CAT_ID":45444,"ELEMENT_SET_NO":999,"REV_AT_EPOCH":29117,"BSTAR":0.0014121497,"MEAN_MOTION_DOT":5.13e-6,"MEAN_MOTION_DDOT":0},{"OBJECT_NAME":"ONEWEB-0029","OBJECT_ID":"2020-020X","EPOCH":"2026-03-21T13:56:29.487840","MEAN_MOTION":13.11416056,"ECCENTRICITY":0.0001787,"INCLINATION":87.8891,"RA_OF_ASC_NODE":38.4802,"ARG_OF_PERICENTER":83.6507,"MEAN_ANOMALY":276.4824,"EPHEMERIS_TYPE":0,"CLASSIFICATION_TYPE":"U","NORAD_CAT_ID":45445,"ELEMENT_SET_NO":999,"REV_AT_EPOCH":29117,"BSTAR":-1.7544727e-5,"MEAN_MOTION_DOT":6.0e-8,"MEAN_MOTION_DDOT":0},{"OBJECT_NAME":"ONEWEB-0068","OBJECT_ID":"2020-020Y","EPOCH":"2026-03-21T09:53:23.025120","MEAN_MOTION":13.11415938,"ECCENTRICITY":0.00017625,"INCLINATION":87.8893,"RA_OF_ASC_NODE":38.5054,"ARG_OF_PERICENTER":86.5032,"MEAN_ANOMALY":273.6298,"EPHEMERIS_TYPE":0,"CLASSIFICATION_TYPE":"U","NORAD_CAT_ID":45446,"ELEMENT_SET_NO":999,"REV_AT_EPOCH":29109,"BSTAR":0.001490055,"MEAN_MOTION_DOT":5.41e-6,"MEAN_MOTION_DDOT":0},{"OBJECT_NAME":"ONEWEB-0046","OBJECT_ID":"2020-020Z","EPOCH":"2026-03-21T09:41:20.771232","MEAN_MOTION":13.11423455,"ECCENTRICITY":0.00016182,"INCLINATION":87.8893,"RA_OF_ASC_NODE":38.5137,"ARG_OF_PERICENTER":79.5538,"MEAN_ANOMALY":280.5772,"EPHEMERIS_TYPE":0,"CLASSIFICATION_TYPE":"U","NORAD_CAT_ID":45447,"ELEMENT_SET_NO":999,"REV_AT_EPOCH":29110,"BSTAR":-0.0018214301,"MEAN_MOTION_DOT":-6.33e-6,"MEAN_MOTION_DDOT":0},{"OBJECT_NAME":"ONEWEB-0063","OBJECT_ID":"2020-020AA","EPOCH":"2026-03-21T14:02:35.592288","MEAN_MOTION":13.11415452,"ECCENTRICITY":0.00016899,"INCLINATION":87.8893,"RA_OF_ASC_NODE":38.4752,"ARG_OF_PERICENTER":73.5743,"MEAN_ANOMALY":286.5571,"EPHEMERIS_TYPE":0,"CLASSIFICATION_TYPE":"U","NORAD_CAT_ID":45448,"ELEMENT_SET_NO":999,"REV_AT_EPOCH":29121,"BSTAR":-0.0005818348,"MEAN_MOTION_DOT":-1.94e-6,"MEAN_MOTION_DDOT":0},{"OBJECT_NAME":"ONEWEB-0019","OBJECT_ID":"2020-020AB","EPOCH":"2026-03-21T09:28:57.631008","MEAN_MOTION":13.11418213,"ECCENTRICITY":0.00020246,"INCLINATION":87.8885,"RA_OF_ASC_NODE":38.5057,"ARG_OF_PERICENTER":81.2441,"MEAN_ANOMALY":278.8916,"EPHEMERIS_TYPE":0,"CLASSIFICATION_TYPE":"U","NORAD_CAT_ID":45449,"ELEMENT_SET_NO":999,"REV_AT_EPOCH":29103,"BSTAR":0.00079937785,"MEAN_MOTION_DOT":2.96e-6,"MEAN_MOTION_DDOT":0},{"OBJECT_NAME":"ONEWEB-0094","OBJECT_ID":"2020-020AC","EPOCH":"2026-03-21T13:44:32.917344","MEAN_MOTION":13.17647845,"ECCENTRICITY":0.00019324,"INCLINATION":87.918,"RA_OF_ASC_NODE":23.238,"ARG_OF_PERICENTER":85.874,"MEAN_ANOMALY":274.2612,"EPHEMERIS_TYPE":0,"CLASSIFICATION_TYPE":"U","NORAD_CAT_ID":45450,"ELEMENT_SET_NO":999,"REV_AT_EPOCH":29477,"BSTAR":8.0708709e-5,"MEAN_MOTION_DOT":4.4e-7,"MEAN_MOTION_DDOT":0},{"OBJECT_NAME":"ONEWEB-0087","OBJECT_ID":"2020-020AD","EPOCH":"2026-03-21T14:17:02.522976","MEAN_MOTION":13.11416305,"ECCENTRICITY":0.00017566,"INCLINATION":87.8902,"RA_OF_ASC_NODE":38.4406,"ARG_OF_PERICENTER":89.6314,"MEAN_ANOMALY":270.5016,"EPHEMERIS_TYPE":0,"CLASSIFICATION_TYPE":"U","NORAD_CAT_ID":45451,"ELEMENT_SET_NO":999,"REV_AT_EPOCH":29110,"BSTAR":-0.0013487413,"MEAN_MOTION_DOT":-4.65e-6,"MEAN_MOTION_DDOT":0}]
